[{"OBJECT_NAME":"STARLINK-5195","OBJECT_ID":"2022-136A","EPOCH":"2026-03-09T23:24:47.058624","MEAN_MOTION":15.0880976,"ECCENTRICITY":0.00018772,"INCLINATION":53.2201,"RA_OF_ASC_NODE":343.0819,"ARG_OF_PERICENTER":106.9416,"MEAN_ANOMALY":253.1782,"EPHEMERIS_TYPE":0,"CLASSIFICATION_TYPE":"U","NORAD_CAT_ID":54051,"ELEMENT_SET_NO":999,"REV_AT_EPOCH":18688,"BSTAR":0.00043296823,"MEAN_MOTION_DOT":6.604e-5,"MEAN_MOTION_DDOT":0},{"OBJECT_NAME":"OBJECT H","OBJECT_ID":"2025-292H","EPOCH":"2026-03-09T22:24:53.558208","MEAN_MOTION":15.06373042,"ECCENTRICITY":0.00142604,"INCLINATION":97.6442,"RA_OF_ASC_NODE":145.7846,"ARG_OF_PERICENTER":348.9217,"MEAN_ANOMALY":11.1694,"EPHEMERIS_TYPE":0,"CLASSIFICATION_TYPE":"U","NORAD_CAT_ID":67000,"ELEMENT_SET_NO":999,"REV_AT_EPOCH":1338,"BSTAR":0.0005462937,"MEAN_MOTION_DOT":8.001e-5,"MEAN_MOTION_DDOT":0}]
